EXPRESS-AMU1            
1 41191U 15082A   16103.87458861  .00000127  00000-0  00000+0 0  9999
2 41191   0.0017 206.0379 0002335 143.3718 203.0076  1.00270905  1231
GAOFEN 4                
1 41194U 15083A   16103.83573170 -.00000364  00000-0  00000-0 0  9995
2 41194   0.3897 264.7872 0001623 291.9223  51.5871  1.00268298  1211
BELINTERSAT-1           
1 41238U 16001A   16099.15217432  .00000085  00000-0  10000-3 0  9993
2 41238   0.0152 286.0751 0001290 116.2816 260.7657  1.00274872   952
IRNSS-1E                
1 41241U 16003A   16102.68905093 -.00000284  00000-0  00000+0 0  9996
2 41241  28.1399 122.2879 0020941 185.9808 251.9667  1.00273194   915
INTELSAT 29E (IS-29E)   
1 41308U 16004A   16104.32022512 -.00000311  00000-0  00000+0 0  9991
2 41308   0.0579 345.1942 0002028  21.7542 260.2534  1.00271859   881
EUTELSAT 9B             
1 41310U 16005A   16103.81998620  .00000034  00000-0  00000-0 0  9992
2 41310   0.0893 128.6289 0001569 188.8984 188.0907  1.00273068   835
IRNSS-1F                
1 41384U 16015A   16103.88131756  .00000122  00000-0  00000+0 0  9997
2 41384   5.0484 274.1236 0020935 175.1179 102.0845  1.00279019   412
